{
  "norad_id": 59498,
  "name": "STARLINK-31731",
  "history": [
    {
      "epoch": "2026-03-28T16:18:00.845280Z",
      "apogee_km": 483.7440711241179,
      "perigee_km": 481.89463173002696,
      "latitude_deg": -1.404950850210009e-05,
      "longitude_deg": 161.56970032155633,
      "height_km": 482.59738739947596,
      "semi_major_axis_km": 6860.956351427072,
      "eccentricity": 0.00013478,
      "inclination_deg": 43.0017,
      "raan_deg": 232.1694,
      "arg_perigee_deg": 269.926,
      "mean_anomaly_deg": 90.1437,
      "mean_motion_rev_day": 15.27656729
    }
  ]
}