{"fetched_at":"2026-03-30T13:17:50Z","count":15418,"tles":[{"name":"STARLINK-31731","line1":"1 59498U 24071Q   26087.67917645  .00010823  00000+0  40131-3 0  9992","line2":"2 59498  43.0017 232.1694 0001347 269.9260  90.1437 15.27656729111117","category":"Starlink"}]}